[
    {
        "Altitude(m)": 560079.8571826043,
        "Argument of Periapsis(deg)": 0.019868973332140504,
        "Eccentricity": 0.0,
        "Inclination(deg)": 53.0,
        "Latitude(deg)": -23.503438755921103,
        "Longitude(deg)": 178.59853588614436,
        "Mean Anomaly(deg)": -29.725121397267213,
        "RAAN(deg)": 299.97043010558406,
        "Satellite Name": "Starlink Shell 1 1338",
        "Satellite Number": 1338,
        "Semi-Major Axis(m)": 6931778.249405717,
        "Time(s)": 570
    },
    {
        "Altitude(m)": 559913.7360697107,
        "Argument of Periapsis(deg)": 0.02021755181165174,
        "Eccentricity": 0.0,
        "Inclination(deg)": 53.0,
        "Latitude(deg)": -23.02773389402321,
        "Longitude(deg)": 179.00245962403773,
        "Mean Anomaly(deg)": -29.098290193710515,
        "RAAN(deg)": 299.9699113355066,
        "Satellite Name": "Starlink Shell 1 1338",
        "Satellite Number": 1338,
        "Semi-Major Axis(m)": 6931778.249405717,
        "Time(s)": 580
    },
    {
        "Altitude(m)": 559748.7214291266,
        "Argument of Periapsis(deg)": 0.020566130291162974,
        "Eccentricity": 0.0,
        "Inclination(deg)": 53.0,
        "Latitude(deg)": -22.550742324685643,
        "Longitude(deg)": 179.4032819924391,
        "Mean Anomaly(deg)": -28.471458990153767,
        "RAAN(deg)": 299.96939256542913,
        "Satellite Name": "Starlink Shell 1 1338",
        "Satellite Number": 1338,
        "Semi-Major Axis(m)": 6931778.249405717,
        "Time(s)": 590
    },
    {
        "Altitude(m)": 559584.8720187487,
        "Argument of Periapsis(deg)": 0.020914708770674213,
        "Eccentricity": 0.0,
        "Inclination(deg)": 53.0,
        "Latitude(deg)": -22.072501245994548,
        "Longitude(deg)": 179.80108755144693,
        "Mean Anomaly(deg)": -27.844627786597023,
        "RAAN(deg)": 299.9688737953516,
        "Satellite Name": "Starlink Shell 1 1338",
        "Satellite Number": 1338,
        "Semi-Major Axis(m)": 6931778.249405717,
        "Time(s)": 600
    },
    {
        "Altitude(m)": 559422.245928204,
        "Argument of Periapsis(deg)": 0.021263287250185448,
        "Eccentricity": 0.0,
        "Inclination(deg)": 53.0,
        "Latitude(deg)": -21.593047148483894,
        "Longitude(deg)": -179.80404029617202,
        "Mean Anomaly(deg)": -27.217796583040325,
        "RAAN(deg)": 299.9683550252742,
        "Satellite Name": "Starlink Shell 1 1338",
        "Satellite Number": 1338,
        "Semi-Major Axis(m)": 6931778.249405717,
        "Time(s)": 610
    },
    {
        "Altitude(m)": 559260.9005528718,
        "Argument of Periapsis(deg)": 0.021611865729696686,
        "Eccentricity": 0.0,
        "Inclination(deg)": 53.0,
        "Latitude(deg)": -21.11241583850285,
        "Longitude(deg)": -179.4120187795659,
        "Mean Anomaly(deg)": -26.590965379483634,
        "RAAN(deg)": 299.96783625519674,
        "Satellite Name": "Starlink Shell 1 1338",
        "Satellite Number": 1338,
        "Semi-Major Axis(m)": 6931778.249405717,
        "Time(s)": 620
    },
    {
        "Altitude(m)": 559100.8925682253,
        "Argument of Periapsis(deg)": 0.02196044420920792,
        "Eccentricity": 0.0,
        "Inclination(deg)": 53.0,
        "Latitude(deg)": -20.630642461078498,
        "Longitude(deg)": -179.02276691451965,
        "Mean Anomaly(deg)": -25.964134175926937,
        "RAAN(deg)": 299.9673174851192,
        "Satellite Name": "Starlink Shell 1 1338",
        "Satellite Number": 1338,
        "Semi-Major Axis(m)": 6931778.249405717,
        "Time(s)": 630
    },
    {
        "Altitude(m)": 558942.2779045692,
        "Argument of Periapsis(deg)": 0.02230902268871916,
        "Eccentricity": 0.0,
        "Inclination(deg)": 53.0,
        "Latitude(deg)": -20.147761522287126,
        "Longitude(deg)": -178.63620413598076,
        "Mean Anomaly(deg)": -25.33730297237014,
        "RAAN(deg)": 299.96679871504176,
        "Satellite Name": "Starlink Shell 1 1338",
        "Satellite Number": 1338,
        "Semi-Major Axis(m)": 6931778.249405717,
        "Time(s)": 640
    },
    {
        "Altitude(m)": 558785.1117220811,
        "Argument of Periapsis(deg)": 0.022657601168230398,
        "Eccentricity": 0.0,
        "Inclination(deg)": 53.0,
        "Latitude(deg)": -19.66380691113411,
        "Longitude(deg)": -178.25225145138742,
        "Mean Anomaly(deg)": -24.710471768813544,
        "RAAN(deg)": 299.9662799449643,
        "Satellite Name": "Starlink Shell 1 1338",
        "Satellite Number": 1338,
        "Semi-Major Axis(m)": 6931778.249405717,
        "Time(s)": 650
    },
    {
        "Altitude(m)": 558629.4483862397,
        "Argument of Periapsis(deg)": 0.023006179647741636,
        "Eccentricity": 0.0,
        "Inclination(deg)": 53.0,
        "Latitude(deg)": -19.178811920956377,
        "Longitude(deg)": -177.87083091244864,
        "Mean Anomaly(deg)": -24.08364056525685,
        "RAAN(deg)": 299.96576117488684,
        "Satellite Name": "Starlink Shell 1 1338",
        "Satellite Number": 1338,
        "Semi-Major Axis(m)": 6931778.249405717,
        "Time(s)": 660
    },
    {
        "Altitude(m)": 558475.3414436195,
        "Argument of Periapsis(deg)": 0.023354758127252868,
        "Eccentricity": 0.0,
        "Inclination(deg)": 53.0,
        "Latitude(deg)": -18.69280927035562,
        "Longitude(deg)": -177.4918650864217,
        "Mean Anomaly(deg)": -23.4568093617,
        "RAAN(deg)": 299.9652424048093,
        "Satellite Name": "Starlink Shell 1 1338",
        "Satellite Number": 1338,
        "Semi-Major Axis(m)": 6931778.249405717,
        "Time(s)": 670
    },
    {
        "Altitude(m)": 558322.8435981219,
        "Argument of Periapsis(deg)": 0.023703336606764106,
        "Eccentricity": 0.0,
        "Inclination(deg)": 53.0,
        "Latitude(deg)": -18.205831123668133,
        "Longitude(deg)": -177.11527803982474,
        "Mean Anomaly(deg)": -22.829978158143355,
        "RAAN(deg)": 299.96472363473185,
        "Satellite Name": "Starlink Shell 1 1338",
        "Satellite Number": 1338,
        "Semi-Major Axis(m)": 6931778.249405717,
        "Time(s)": 680
    },
    {
        "Altitude(m)": 558172.0066875587,
        "Argument of Periapsis(deg)": 0.024051915086275345,
        "Eccentricity": 0.0,
        "Inclination(deg)": 53.0,
        "Latitude(deg)": -17.717909110985403,
        "Longitude(deg)": -176.74099480889726,
        "Mean Anomaly(deg)": -22.20314695458666,
        "RAAN(deg)": 299.9642048646544,
        "Satellite Name": "Starlink Shell 1 1338",
        "Satellite Number": 1338,
        "Semi-Major Axis(m)": 6931778.249405717,
        "Time(s)": 690
    },
    {
        "Altitude(m)": 558022.8816606789,
        "Argument of Periapsis(deg)": 0.024400493565786583,
        "Eccentricity": 0.0,
        "Inclination(deg)": 53.0,
        "Latitude(deg)": -17.22907434773667,
        "Longitude(deg)": -176.3689408697394,
        "Mean Anomaly(deg)": -21.576315751029913,
        "RAAN(deg)": 299.96368609457693,
        "Satellite Name": "Starlink Shell 1 1338",
        "Satellite Number": 1338,
        "Semi-Major Axis(m)": 6931778.249405717,
        "Time(s)": 700
    },
    {
        "Altitude(m)": 557875.51855464,
        "Argument of Periapsis(deg)": 0.024749072045297815,
        "Eccentricity": 0.0,
        "Inclination(deg)": 53.0,
        "Latitude(deg)": -16.739357453838622,
        "Longitude(deg)": -175.9990431210521,
        "Mean Anomaly(deg)": -20.949484547473165,
        "RAAN(deg)": 299.96316732449947,
        "Satellite Name": "Starlink Shell 1 1338",
        "Satellite Number": 1338,
        "Semi-Major Axis(m)": 6931778.249405717,
        "Time(s)": 710
    },
    {
        "Altitude(m)": 557729.966472882,
        "Argument of Periapsis(deg)": 0.025097650524809053,
        "Eccentricity": 0.0,
        "Inclination(deg)": 53.0,
        "Latitude(deg)": -16.24878857243014,
        "Longitude(deg)": -175.6312293537763,
        "Mean Anomaly(deg)": -20.322653343916524,
        "RAAN(deg)": 299.96264855442195,
        "Satellite Name": "Starlink Shell 1 1338",
        "Satellite Number": 1338,
        "Semi-Major Axis(m)": 6931778.249405717,
        "Time(s)": 720
    },
    {
        "Altitude(m)": 557586.2735634968,
        "Argument of Periapsis(deg)": 0.02544622900432029,
        "Eccentricity": 0.0,
        "Inclination(deg)": 53.0,
        "Latitude(deg)": -15.757397388200888,
        "Longitude(deg)": -175.26542772054765,
        "Mean Anomaly(deg)": -19.695822140359827,
        "RAAN(deg)": 299.9621297843445,
        "Satellite Name": "Starlink Shell 1 1338",
        "Satellite Number": 1338,
        "Semi-Major Axis(m)": 6931778.249405717,
        "Time(s)": 730
    },
    {
        "Altitude(m)": 557444.486998042,
        "Argument of Periapsis(deg)": 0.02579480748383153,
        "Eccentricity": 0.0,
        "Inclination(deg)": 53.0,
        "Latitude(deg)": -15.265213145322628,
        "Longitude(deg)": -174.90156771787585,
        "Mean Anomaly(deg)": -19.06899093680308,
        "RAAN(deg)": 299.9616110142671,
        "Satellite Name": "Starlink Shell 1 1338",
        "Satellite Number": 1338,
        "Semi-Major Axis(m)": 6931778.249405717,
        "Time(s)": 740
    },
    {
        "Altitude(m)": 557304.652950824,
        "Argument of Periapsis(deg)": 0.026143385963342765,
        "Eccentricity": 0.0,
        "Inclination(deg)": 53.0,
        "Latitude(deg)": -14.77226466500075,
        "Longitude(deg)": -174.53957965533684,
        "Mean Anomaly(deg)": -18.442159733246335,
        "RAAN(deg)": 299.96109224418956,
        "Satellite Name": "Starlink Shell 1 1338",
        "Satellite Number": 1338,
        "Semi-Major Axis(m)": 6931778.249405717,
        "Time(s)": 750
    }
]